XRISM                   
1 57800U 23137A   23322.92800739  .00003195  00000+0  25309-3 0  9995
2 57800  31.0041 274.5515 0010502 276.0961  83.8478 14.98633894 10867
